CTC1_L_00289001-01
1 38839U 25615RH  26037.47804398  .00000000  00000+0  00000-0 0  9990
2 38839  80.0000   0.0000 0000000   0.0000   0.0000 15.18623352    18
CTC1_L_00289001-02
1 38840U 22288PS  26037.47804398  .00000000  00000+0  00000-0 0  9995
2 38840  80.0000   0.0000 0000000   0.0000  90.0000 15.18623352    19
CTC1_L_00289001-03
1 38841U 22474M   26037.47804398  .00000000  00000+0  00000-0 0  9993
2 38841  80.0000   0.0000 0000000   0.0000 180.0000 15.18623352    10
CTC1_L_00289001-04
1 38842U 23532OH  26037.47804398  .00000000  00000+0  00000-0 0  9990
2 38842  80.0000   0.0000 0000000   0.0000 270.0000 15.18623352    11
CTC1_L_00289002-01
1 38843U 24895FW  26037.47804398  .00000000  00000+0  00000-0 0  9994
2 38843  80.0000  12.0000 0000000   0.0000  12.0000 15.18623352    19
CTC1_L_00289002-02
1 38844U 25562EE  26037.47804398  .00000000  00000+0  00000-0 0  9997
2 38844  80.0000  12.0000 0000000   0.0000 102.0000 15.18623352    10
CTC1_L_00289002-03
1 38845U 23804LR  26037.47804398  .00000000  00000+0  00000-0 0  9995
2 38845  80.0000  12.0000 0000000   0.0000 192.0000 15.18623352    10
CTC1_L_00289002-04
1 38846U 24811HK  26037.47804398  .00000000  00000+0  00000-0 0  9995
2 38846  80.0000  12.0000 0000000   0.0000 282.0000 15.18623352    11
CTC1_L_00289003-01
1 38847U 25925HC  26037.47804398  .00000000  00000+0  00000-0 0  9993
2 38847  80.0000  24.0000 0000000   0.0000  24.0000 15.18623352    19
CTC1_L_00289003-02
1 38848U 24333TZ  26037.47804398  .00000000  00000+0  00000-0 0  9996
2 38848  80.0000  24.0000 0000000   0.0000 114.0000 15.18623352    10
CTC1_L_00289003-03
1 38849U 24385RS  26037.47804398  .00000000  00000+0  00000-0 0  9994
2 38849  80.0000  24.0000 0000000   0.0000 204.0000 15.18623352    11
CTC1_L_00289003-04
1 38850U 25961OF  26037.47804398  .00000000  00000+0  00000-0 0  9997
2 38850  80.0000  24.0000 0000000   0.0000 294.0000 15.18623352    12
CTC1_L_00289004-01
1 38851U 26197GQ  26037.47804398  .00000000  00000+0  00000-0 0  9990
2 38851  80.0000  36.0000 0000000   0.0000  36.0000 15.18623352    10
CTC1_L_00289004-02
1 38852U 26895AJ  26037.47804398  .00000000  00000+0  00000-0 0  9996
2 38852  80.0000  36.0000 0000000   0.0000 126.0000 15.18623352    11
CTC1_L_00289004-03
1 38853U 26898AS  26037.47804398  .00000000  00000+0  00000-0 0  9990
2 38853  80.0000  36.0000 0000000   0.0000 216.0000 15.18623352    12
CTC1_L_00289004-04
1 38854U 23713ZF  26037.47804398  .00000000  00000+0  00000-0 0  9994
2 38854  80.0000  36.0000 0000000   0.0000 306.0000 15.18623352    13
CTC1_L_00289005-01
1 38855U 23969TK  26037.47804398  .00000000  00000+0  00000-0 0  9998
2 38855  80.0000  48.0000 0000000   0.0000  48.0000 15.18623352    10
CTC1_L_00289005-02
1 38856U 24400GV  26037.47804398  .00000000  00000+0  00000-0 0  9990
2 38856  80.0000  48.0000 0000000   0.0000 138.0000 15.18623352    11
CTC1_L_00289005-03
1 38857U 22999EQ  26037.47804398  .00000000  00000+0  00000-0 0  9992
2 38857  80.0000  48.0000 0000000   0.0000 228.0000 15.18623352    12
CTC1_L_00289005-04
1 38858U 23753Y   26037.47804398  .00000000  00000+0  00000-0 0  9992
2 38858  80.0000  48.0000 0000000   0.0000 318.0000 15.18623352    13
CTC1_L_00289006-01
1 38859U 24258VU  26037.47804398  .00000000  00000+0  00000-0 0  9994
2 38859  80.0000  60.0000 0000000   0.0000  60.0000 15.18623352    12
CTC1_L_00289006-02
1 38860U 23827NJ  26037.47804398  .00000000  00000+0  00000-0 0  9997
2 38860  80.0000  60.0000 0000000   0.0000 150.0000 15.18623352    14
CTC1_L_00289006-03
1 38861U 22059HV  26037.47804398  .00000000  00000+0  00000-0 0  9994
2 38861  80.0000  60.0000 0000000   0.0000 240.0000 15.18623352    15
CTC1_L_00289006-04
1 38862U 22139XB  26037.47804398  .00000000  00000+0  00000-0 0  9994
2 38862  80.0000  60.0000 0000000   0.0000 330.0000 15.18623352    16
CTC1_L_00289007-01
1 38863U 23412JC  26037.47804398  .00000000  00000+0  00000-0 0  9990
2 38863  80.0000  72.0000 0000000   0.0000  72.0000 15.18623352    13
CTC1_L_00289007-02
1 38864U 26048AU  26037.47804398  .00000000  00000+0  00000-0 0  9999
2 38864  80.0000  72.0000 0000000   0.0000 162.0000 15.18623352    14
CTC1_L_00289007-03
1 38865U 26779FL  26037.47804398  .00000000  00000+0  00000-0 0  9991
2 38865  80.0000  72.0000 0000000   0.0000 252.0000 15.18623352    15
CTC1_L_00289007-04
1 38866U 24512GT  26037.47804398  .00000000  00000+0  00000-0 0  9995
2 38866  80.0000  72.0000 0000000   0.0000 342.0000 15.18623352    16
CTC1_L_00289008-01
1 38867U 25439ES  26037.47804398  .00000000  00000+0  00000-0 0  9995
2 38867  80.0000  84.0000 0000000   0.0000  84.0000 15.18623352    13
CTC1_L_00289008-02
1 38868U 25052YA  26037.47804398  .00000000  00000+0  00000-0 0  9997
2 38868  80.0000  84.0000 0000000   0.0000 174.0000 15.18623352    14
CTC1_L_00289008-03
1 38869U 22119IZ  26037.47804398  .00000000  00000+0  00000-0 0  9999
2 38869  80.0000  84.0000 0000000   0.0000 264.0000 15.18623352    15
CTC1_L_00289008-04
1 38870U 24564HR  26037.47804398  .00000000  00000+0  00000-0 0  9997
2 38870  80.0000  84.0000 0000000   0.0000 354.0000 15.18623352    17
CTC1_L_00289009-01
1 38871U 25009JK  26037.47804398  .00000000  00000+0  00000-0 0  9993
2 38871  80.0000  96.0000 0000000   0.0000  96.0000 15.18623352    14
CTC1_L_00289009-02
1 38872U 26113CV  26037.47804398  .00000000  00000+0  00000-0 0  9991
2 38872  80.0000  96.0000 0000000   0.0000 186.0000 15.18623352    15
CTC1_L_00289009-03
1 38873U 24442DJ  26037.47804398  .00000000  00000+0  00000-0 0  9995
2 38873  80.0000  96.0000 0000000   0.0000 276.0000 15.18623352    16
CTC1_L_00289009-04
1 38874U 24922MZ  26037.47804398  .00000000  00000+0  00000-0 0  9999
2 38874  80.0000  96.0000 0000000   0.0000   6.0000 15.18623352    18
CTC1_L_00289010-01
1 38875U 23809UF  26037.47804398  .00000000  00000+0  00000-0 0  9993
2 38875  80.0000 108.0000 0000000   0.0000 108.0000 15.18623352    16
CTC1_L_00289010-02
1 38876U 25447VX  26037.47804398  .00000000  00000+0  00000-0 0  9994
2 38876  80.0000 108.0000 0000000   0.0000 198.0000 15.18623352    16
CTC1_L_00289010-03
1 38877U 22397CZ  26037.47804398  .00000000  00000+0  00000-0 0  9996
2 38877  80.0000 108.0000 0000000   0.0000 288.0000 15.18623352    17
CTC1_L_00289010-04
1 38878U 23432LS  26037.47804398  .00000000  00000+0  00000-0 0  9998
2 38878  80.0000 108.0000 0000000   0.0000  18.0000 15.18623352    19
CTC1_L_00289011-01
1 38879U 26837YY  26037.47804398  .00000000  00000+0  00000-0 0  9991
2 38879  80.0000 120.0000 0000000   0.0000 120.0000 15.18623352    18
CTC1_L_00289011-02
1 38880U 23736MK  26037.47804398  .00000000  00000+0  00000-0 0  9998
2 38880  80.0000 120.0000 0000000   0.0000 210.0000 15.18623352    10
CTC1_L_00289011-03
1 38881U 22980MH  26037.47804398  .00000000  00000+0  00000-0 0  9999
2 38881  80.0000 120.0000 0000000   0.0000 300.0000 15.18623352    11
CTC1_L_00289011-04
1 38882U 25074KQ  26037.47804398  .00000000  00000+0  00000-0 0  9997
2 38882  80.0000 120.0000 0000000   0.0000  30.0000 15.18623352    12
CTC1_L_00289012-01
1 38883U 22777BW  26037.47804398  .00000000  00000+0  00000-0 0  9995
2 38883  80.0000 132.0000 0000000   0.0000 132.0000 15.18623352    19
CTC1_L_00289012-02
1 38884U 26500FC  26037.47804398  .00000000  00000+0  00000-0 0  9994
2 38884  80.0000 132.0000 0000000   0.0000 222.0000 15.18623352    10
CTC1_L_00289012-03
1 38885U 25350QK  26037.47804398  .00000000  00000+0  00000-0 0  9997
2 38885  80.0000 132.0000 0000000   0.0000 312.0000 15.18623352    11
CTC1_L_00289012-04
1 38886U 24843PZ  26037.47804398  .00000000  00000+0  00000-0 0  9994
2 38886  80.0000 132.0000 0000000   0.0000  42.0000 15.18623352    12
CTC1_L_00289013-01
1 38887U 22655CD  26037.47804398  .00000000  00000+0  00000-0 0  9994
2 38887  80.0000 144.0000 0000000   0.0000 144.0000 15.18623352    19
CTC1_L_00289013-02
1 38888U 22831NO  26037.47804398  .00000000  00000+0  00000-0 0  9991
2 38888  80.0000 144.0000 0000000   0.0000 234.0000 15.18623352    10
CTC1_L_00289013-03
1 38889U 25425XX  26037.47804398  .00000000  00000+0  00000-0 0  9994
2 38889  80.0000 144.0000 0000000   0.0000 324.0000 15.18623352    11
CTC1_L_00289013-04
1 38890U 24569LS  26037.47804398  .00000000  00000+0  00000-0 0  9994
2 38890  80.0000 144.0000 0000000   0.0000  54.0000 15.18623352    13
CTC1_L_00289014-01
1 38891U 26754TE  26037.47804398  .00000000  00000+0  00000-0 0  9993
2 38891  80.0000 156.0000 0000000   0.0000 156.0000 15.18623352    10
CTC1_L_00289014-02
1 38892U 23434W   26037.47804398  .00000000  00000+0  00000-0 0  9996
2 38892  80.0000 156.0000 0000000   0.0000 246.0000 15.18623352    11
CTC1_L_00289014-03
1 38893U 25444KM  26037.47804398  .00000000  00000+0  00000-0 0  9990
2 38893  80.0000 156.0000 0000000   0.0000 336.0000 15.18623352    12
CTC1_L_00289014-04
1 38894U 26330EA  26037.47804398  .00000000  00000+0  00000-0 0  9996
2 38894  80.0000 156.0000 0000000   0.0000  66.0000 15.18623352    13
CTC1_L_00289015-01
1 38895U 26821ZC  26037.47804398  .00000000  00000+0  00000-0 0  9992
2 38895  80.0000 168.0000 0000000   0.0000 168.0000 15.18623352    10
CTC1_L_00289015-02
1 38896U 22775OS  26037.47804398  .00000000  00000+0  00000-0 0  9997
2 38896  80.0000 168.0000 0000000   0.0000 258.0000 15.18623352    11
CTC1_L_00289015-03
1 38897U 26765PE  26037.47804398  .00000000  00000+0  00000-0 0  9991
2 38897  80.0000 168.0000 0000000   0.0000 348.0000 15.18623352    12
CTC1_L_00289015-04
1 38898U 23991MQ  26037.47804398  .00000000  00000+0  00000-0 0  9990
2 38898  80.0000 168.0000 0000000   0.0000  78.0000 15.18623352    13
CTC1_L_00289016-01
1 38899U 22182PV  26037.47804398  .00000000  00000+0  00000-0 0  9992
2 38899  80.0000 180.0000 0000000   0.0000 180.0000 15.18623352    12
CTC1_L_00289016-02
1 38900U 25268UM  26037.47804398  .00000000  00000+0  00000-0 0  9993
2 38900  80.0000 180.0000 0000000   0.0000 270.0000 15.18623352    15
